0 COSMOS 1082
1 11297U 79024B   13284.18058760 -.00000038  00000-0 -13689-3 0  3453
2 11297 074.0354 217.1292 0026602 020.9964 114.0354 12.54892892183948
0 COSMOS 1082
1 11297U 79024B   13286.26036927 -.00000018  00000-0 -10345-4 0  3461
2 11297 074.0357 214.3411 0026666 017.8991 149.6286 12.54892684184205
0 COSMOS 1082
1 11297U 79024B   13289.19696166  .00000026  00000-0  25812-3 0  3475
2 11297 074.0357 210.4047 0026728 013.4703 095.9926 12.54892435184577
0 COSMOS 1082
1 11297U 79024B   13291.19964031  .00000023  00000-0  24365-3 0  3487
2 11297 074.0355 207.7203 0026761 010.4245 143.3264 12.54892525184824
0 COSMOS 1082
1 11297U 79024B   13293.50177385 -.00000004  00000-0  76042-4 0  3493
2 11297 074.0351 204.6344 0026793 006.9599 103.4460 12.54892836185112
0 COSMOS 1082
1 11297U 79024B   13295.88345814 -.00000034  00000-0 -11031-3 0  3502
2 11297 074.0350 201.4418 0026827 003.3185 063.0031 12.54893148185413
